[{"OBJECT_NAME":"OMNI-L1","OBJECT_ID":"2022-033A","EPOCH":"2026-04-25T17:46:21.386784","MEAN_MOTION":14.82546029,"ECCENTRICITY":0.0006731,"INCLINATION":97.8398,"RA_OF_ASC_NODE":195.9434,"ARG_OF_PERICENTER":96.5495,"MEAN_ANOMALY":263.6485,"EPHEMERIS_TYPE":0,"CLASSIFICATION_TYPE":"U","NORAD_CAT_ID":52157,"ELEMENT_SET_NO":999,"REV_AT_EPOCH":21968,"BSTAR":0.00022534,"MEAN_MOTION_DOT":1.76e-5,"MEAN_MOTION_DDOT":0},{"OBJECT_NAME":"ENMAP","OBJECT_ID":"2022-033C","EPOCH":"2026-04-25T19:02:44.004768","MEAN_MOTION":14.74941691,"ECCENTRICITY":0.0001509,"INCLINATION":97.9782,"RA_OF_ASC_NODE":198.7873,"ARG_OF_PERICENTER":86.3951,"MEAN_ANOMALY":273.743,"EPHEMERIS_TYPE":0,"CLASSIFICATION_TYPE":"U","NORAD_CAT_ID":52159,"ELEMENT_SET_NO":999,"REV_AT_EPOCH":21893,"BSTAR":7.0573e-5,"MEAN_MOTION_DOT":4.24e-6,"MEAN_MOTION_DDOT":0},{"OBJECT_NAME":"ARCSAT-1","OBJECT_ID":"2022-033E","EPOCH":"2026-04-25T19:16:37.546176","MEAN_MOTION":15.52204418,"ECCENTRICITY":0.0005595,"INCLINATION":97.2726,"RA_OF_ASC_NODE":207.3576,"ARG_OF_PERICENTER":48.1354,"MEAN_ANOMALY":312.0375,"EPHEMERIS_TYPE":0,"CLASSIFICATION_TYPE":"U","NORAD_CAT_ID":52161,"ELEMENT_SET_NO":999,"REV_AT_EPOCH":22757,"BSTAR":0.0002481,"MEAN_MOTION_DOT":0.00014954,"MEAN_MOTION_DDOT":0},{"OBJECT_NAME":"GLOBAL-18","OBJECT_ID":"2022-034B","EPOCH":"2026-04-25T19:10:09.262848","MEAN_MOTION":15.44169707,"ECCENTRICITY":0.0005778,"INCLINATION":52.9807,"RA_OF_ASC_NODE":146.594,"ARG_OF_PERICENTER":79.6306,"MEAN_ANOMALY":280.5349,"EPHEMERIS_TYPE":0,"CLASSIFICATION_TYPE":"U","NORAD_CAT_ID":52196,"ELEMENT_SET_NO":999,"REV_AT_EPOCH":22886,"BSTAR":0.00035663,"MEAN_MOTION_DOT":0.00016227,"MEAN_MOTION_DDOT":0},{"OBJECT_NAME":"GAOFEN-3 03","OBJECT_ID":"2022-035A","EPOCH":"2026-04-25T20:23:03.701760","MEAN_MOTION":14.42215915,"ECCENTRICITY":0.0001315,"INCLINATION":98.4091,"RA_OF_ASC_NODE":125.1861,"ARG_OF_PERICENTER":67.3688,"MEAN_ANOMALY":292.764,"EPHEMERIS_TYPE":0,"CLASSIFICATION_TYPE":"U","NORAD_CAT_ID":52200,"ELEMENT_SET_NO":999,"REV_AT_EPOCH":21330,"BSTAR":-7.9958e-6,"MEAN_MOTION_DOT":-7.0e-7,"MEAN_MOTION_DDOT":0},{"OBJECT_NAME":"DAQI-1","OBJECT_ID":"2022-039A","EPOCH":"2026-04-25T20:07:56.050752","MEAN_MOTION":14.57644366,"ECCENTRICITY":0.0004947,"INCLINATION":98.1452,"RA_OF_ASC_NODE":55.7828,"ARG_OF_PERICENTER":64.47,"MEAN_ANOMALY":295.701,"EPHEMERIS_TYPE":0,"CLASSIFICATION_TYPE":"U","NORAD_CAT_ID":52257,"ELEMENT_SET_NO":999,"REV_AT_EPOCH":21431,"BSTAR":7.8993e-5,"MEAN_MOTION_DOT":3.15e-6,"MEAN_MOTION_DDOT":0},{"OBJECT_NAME":"BRO-6","OBJECT_ID":"2022-047AE","EPOCH":"2026-04-25T19:23:57.552000","MEAN_MOTION":15.47332,"ECCENTRICITY":0.0003799,"INCLINATION":97.3391,"RA_OF_ASC_NODE":205.9903,"ARG_OF_PERICENTER":244.0921,"MEAN_ANOMALY":115.9938,"EPHEMERIS_TYPE":0,"CLASSIFICATION_TYPE":"U","NORAD_CAT_ID":52422,"ELEMENT_SET_NO":999,"REV_AT_EPOCH":22304,"BSTAR":0.00063318,"MEAN_MOTION_DOT":0.00032337,"MEAN_MOTION_DDOT":0},{"OBJECT_NAME":"JILIN-1 GAOFEN 3D27","OBJECT_ID":"2022-048B","EPOCH":"2026-04-25T19:51:02.659104","MEAN_MOTION":15.65526633,"ECCENTRICITY":0.0005432,"INCLINATION":97.5653,"RA_OF_ASC_NODE":225.4853,"ARG_OF_PERICENTER":215.437,"MEAN_ANOMALY":144.6529,"EPHEMERIS_TYPE":0,"CLASSIFICATION_TYPE":"U","NORAD_CAT_ID":52444,"ELEMENT_SET_NO":999,"REV_AT_EPOCH":22126,"BSTAR":0.00087392,"MEAN_MOTION_DOT":0.00088212,"MEAN_MOTION_DDOT":0},{"OBJECT_NAME":"JILIN-1 GAOFEN 3D28","OBJECT_ID":"2022-048C","EPOCH":"2026-04-25T20:08:44.604096","MEAN_MOTION":15.67331737,"ECCENTRICITY":0.0003844,"INCLINATION":97.5595,"RA_OF_ASC_NODE":225.4994,"ARG_OF_PERICENTER":224.6685,"MEAN_ANOMALY":135.4266,"EPHEMERIS_TYPE":0,"CLASSIFICATION_TYPE":"U","NORAD_CAT_ID":52445,"ELEMENT_SET_NO":999,"REV_AT_EPOCH":22130,"BSTAR":0.00091073,"MEAN_MOTION_DOT":0.00098915,"MEAN_MOTION_DDOT":0},{"OBJECT_NAME":"VIGORIDE-3","OBJECT_ID":"2022-057AE","EPOCH":"2026-04-25T20:35:40.615008","MEAN_MOTION":15.267123,"ECCENTRICITY":0.0007342,"INCLINATION":97.6521,"RA_OF_ASC_NODE":254.4931,"ARG_OF_PERICENTER":314.259,"MEAN_ANOMALY":45.8045,"EPHEMERIS_TYPE":0,"CLASSIFICATION_TYPE":"U","NORAD_CAT_ID":52760,"ELEMENT_SET_NO":999,"REV_AT_EPOCH":21717,"BSTAR":0.0002701,"MEAN_MOTION_DOT":7.024e-5,"MEAN_MOTION_DDOT":0},{"OBJECT_NAME":"ION SCV-006","OBJECT_ID":"2022-057AF","EPOCH":"2026-04-25T08:49:53.262048","MEAN_MOTION":15.44107464,"ECCENTRICITY":0.0016532,"INCLINATION":97.6029,"RA_OF_ASC_NODE":261.5305,"ARG_OF_PERICENTER":307.5683,"MEAN_ANOMALY":52.4063,"EPHEMERIS_TYPE":0,"CLASSIFICATION_TYPE":"U","NORAD_CAT_ID":52761,"ELEMENT_SET_NO":999,"REV_AT_EPOCH":21796,"BSTAR":0.00024532,"MEAN_MOTION_DOT":0.00011185,"MEAN_MOTION_DDOT":0},{"OBJECT_NAME":"SHERPA-AC1","OBJECT_ID":"2022-057AH","EPOCH":"2026-04-25T16:26:38.014080","MEAN_MOTION":15.35488812,"ECCENTRICITY":0.000632,"INCLINATION":97.6613,"RA_OF_ASC_NODE":262.777,"ARG_OF_PERICENTER":279.7965,"MEAN_ANOMALY":80.2564,"EPHEMERIS_TYPE":0,"CLASSIFICATION_TYPE":"U","NORAD_CAT_ID":52763,"ELEMENT_SET_NO":999,"REV_AT_EPOCH":21764,"BSTAR":0.00023751,"MEAN_MOTION_DOT":8.109e-5,"MEAN_MOTION_DDOT":0},{"OBJECT_NAME":"OMNI-L2","OBJECT_ID":"2022-057AR","EPOCH":"2026-04-25T18:30:37.315872","MEAN_MOTION":14.81225254,"ECCENTRICITY":0.0008085,"INCLINATION":97.4744,"RA_OF_ASC_NODE":181.6489,"ARG_OF_PERICENTER":129.7224,"MEAN_ANOMALY":230.4704,"EPHEMERIS_TYPE":0,"CLASSIFICATION_TYPE":"U","NORAD_CAT_ID":52771,"ELEMENT_SET_NO":999,"REV_AT_EPOCH":21263,"BSTAR":0.00016493,"MEAN_MOTION_DOT":1.238e-5,"MEAN_MOTION_DDOT":0},{"OBJECT_NAME":"STEP CUBE LAB-II","OBJECT_ID":"2022-065D","EPOCH":"2026-04-25T19:46:54.881184","MEAN_MOTION":14.63213442,"ECCENTRICITY":0.0008479,"INCLINATION":98.2148,"RA_OF_ASC_NODE":259.9107,"ARG_OF_PERICENTER":180.3608,"MEAN_ANOMALY":179.7589,"EPHEMERIS_TYPE":0,"CLASSIFICATION_TYPE":"U","NORAD_CAT_ID":52897,"ELEMENT_SET_NO":999,"REV_AT_EPOCH":20384,"BSTAR":0.00016467,"MEAN_MOTION_DOT":8.0e-6,"MEAN_MOTION_DDOT":0},{"OBJECT_NAME":"RANDEV","OBJECT_ID":"2022-065E","EPOCH":"2026-04-25T20:08:19.022784","MEAN_MOTION":14.63597304,"ECCENTRICITY":0.0007817,"INCLINATION":98.2135,"RA_OF_ASC_NODE":260.2538,"ARG_OF_PERICENTER":180.1445,"MEAN_ANOMALY":179.9756,"EPHEMERIS_TYPE":0,"CLASSIFICATION_TYPE":"U","NORAD_CAT_ID":52898,"ELEMENT_SET_NO":999,"REV_AT_EPOCH":20359,"BSTAR":0.00014886,"MEAN_MOTION_DOT":7.25e-6,"MEAN_MOTION_DDOT":0},{"OBJECT_NAME":"SNUGLITE-II","OBJECT_ID":"2022-065F","EPOCH":"2026-04-25T19:47:34.129248","MEAN_MOTION":14.64244602,"ECCENTRICITY":0.0007545,"INCLINATION":98.2127,"RA_OF_ASC_NODE":260.7724,"ARG_OF_PERICENTER":178.5765,"MEAN_ANOMALY":181.546,"EPHEMERIS_TYPE":0,"CLASSIFICATION_TYPE":"U","NORAD_CAT_ID":52899,"ELEMENT_SET_NO":999,"REV_AT_EPOCH":20333,"BSTAR":0.00021681,"MEAN_MOTION_DOT":1.094e-5,"MEAN_MOTION_DDOT":0},{"OBJECT_NAME":"MIMAN","OBJECT_ID":"2022-065G","EPOCH":"2026-04-25T08:13:25.347072","MEAN_MOTION":14.61781023,"ECCENTRICITY":0.0007575,"INCLINATION":98.2181,"RA_OF_ASC_NODE":258.1149,"ARG_OF_PERICENTER":181.918,"MEAN_ANOMALY":178.1994,"EPHEMERIS_TYPE":0,"CLASSIFICATION_TYPE":"U","NORAD_CAT_ID":52900,"ELEMENT_SET_NO":999,"REV_AT_EPOCH":20272,"BSTAR":0.00013308,"MEAN_MOTION_DOT":6.17e-6,"MEAN_MOTION_DDOT":0}]
