OMNI-L1                 
1 52157U 22033A   26115.74052531  .00001760  00000+0  22534-3 0  9994
2 52157  97.8398 195.9434 0006731  96.5495 263.6485 14.82546029219687
ENMAP                   
1 52159U 22033C   26115.79356487  .00000424  00000+0  70573-4 0  9991
2 52159  97.9782 198.7873 0001509  86.3951 273.7430 14.74941691218931
ARCSAT-1                
1 52161U 22033E   26115.80321234  .00014954  00000+0  24810-3 0  9993
2 52161  97.2726 207.3576 0005595  48.1354 312.0375 15.52204418227575
GLOBAL-18               
1 52196U 22034B   26115.79871832  .00016227  00000+0  35663-3 0  9997
2 52196  52.9807 146.5940 0005778  79.6306 280.5349 15.44169707228864
GAOFEN-3 03             
1 52200U 22035A   26115.84934840 -.00000070  00000+0 -79958-5 0  9997
2 52200  98.4091 125.1861 0001315  67.3688 292.7640 14.42215915213307
DAQI-1                  
1 52257U 22039A   26115.83884318  .00000315  00000+0  78993-4 0  9993
2 52257  98.1452  55.7828 0004947  64.4700 295.7010 14.57644366214313
BRO-6                   
1 52422U 22047AE  26115.80830500  .00032337  00000+0  63318-3 0  9990
2 52422  97.3391 205.9903 0003799 244.0921 115.9938 15.47332000223049
JILIN-1 GAOFEN 3D27     
1 52444U 22048B   26115.82711411  .00088212  00000+0  87392-3 0  9997
2 52444  97.5653 225.4853 0005432 215.4370 144.6529 15.65526633221267
JILIN-1 GAOFEN 3D28     
1 52445U 22048C   26115.83940514  .00098915  00000+0  91073-3 0  9999
2 52445  97.5595 225.4994 0003844 224.6685 135.4266 15.67331737221307
VIGORIDE-3              
1 52760U 22057AE  26115.85810897  .00007024  00000+0  27010-3 0  9992
2 52760  97.6521 254.4931 0007342 314.2590  45.8045 15.26712300217171
ION SCV-006             
1 52761U 22057AF  26115.36797757  .00011185  00000+0  24532-3 0  9997
2 52761  97.6029 261.5305 0016532 307.5683  52.4063 15.44107464217968
SHERPA-AC1              
1 52763U 22057AH  26115.68516220  .00008109  00000+0  23751-3 0  9992
2 52763  97.6613 262.7770 0006320 279.7965  80.2564 15.35488812217644
OMNI-L2                 
1 52771U 22057AR  26115.77126523  .00001238  00000+0  16493-3 0  9995
2 52771  97.4744 181.6489 0008085 129.7224 230.4704 14.81225254212632
STEP CUBE LAB-II        
1 52897U 22065D   26115.82424631  .00000800  00000+0  16467-3 0  9995
2 52897  98.2148 259.9107 0008479 180.3608 179.7589 14.63213442203845
RANDEV                  
1 52898U 22065E   26115.83910906  .00000725  00000+0  14886-3 0  9991
2 52898  98.2135 260.2538 0007817 180.1445 179.9756 14.63597304203599
SNUGLITE-II             
1 52899U 22065F   26115.82470057  .00001094  00000+0  21681-3 0  9990
2 52899  98.2127 260.7724 0007545 178.5765 181.5460 14.64244602203331
MIMAN                   
1 52900U 22065G   26115.34265448  .00000617  00000+0  13308-3 0  9993
2 52900  98.2181 258.1149 0007575 181.9180 178.1994 14.61781023202724
